[{"OBJECT_NAME":"KUIPER-00098","OBJECT_ID":"2025-171F","EPOCH":"2026-03-09T22:36:41.125824","MEAN_MOTION":14.79916038,"ECCENTRICITY":0.0001212,"INCLINATION":51.8988,"RA_OF_ASC_NODE":161.9719,"ARG_OF_PERICENTER":176.5287,"MEAN_ANOMALY":183.5684,"EPHEMERIS_TYPE":0,"CLASSIFICATION_TYPE":"U","NORAD_CAT_ID":65137,"ELEMENT_SET_NO":999,"REV_AT_EPOCH":3220,"BSTAR":0.00080666104,"MEAN_MOTION_DOT":5.931e-5,"MEAN_MOTION_DDOT":0},{"OBJECT_NAME":"PEGASUS DEB","OBJECT_ID":"1994-029AEX","EPOCH":"2026-03-09T10:21:12.559968","MEAN_MOTION":14.69785081,"ECCENTRICITY":0.01957394,"INCLINATION":81.9702,"RA_OF_ASC_NODE":117.9188,"ARG_OF_PERICENTER":51.5385,"MEAN_ANOMALY":310.3202,"EPHEMERIS_TYPE":0,"CLASSIFICATION_TYPE":"U","NORAD_CAT_ID":39312,"ELEMENT_SET_NO":999,"REV_AT_EPOCH":67444,"BSTAR":0.0006881266,"MEAN_MOTION_DOT":5.551e-5,"MEAN_MOTION_DDOT":0}]
